[{"OBJECT_NAME":"SAUDISAT 5A","OBJECT_ID":"2018-102A","EPOCH":"2026-03-09T23:40:00.596928","MEAN_MOTION":15.26941021,"ECCENTRICITY":0.00113651,"INCLINATION":97.3185,"RA_OF_ASC_NODE":132.4981,"ARG_OF_PERICENTER":121.7113,"MEAN_ANOMALY":238.5235,"EPHEMERIS_TYPE":0,"CLASSIFICATION_TYPE":"U","NORAD_CAT_ID":43831,"ELEMENT_SET_NO":999,"REV_AT_EPOCH":40053,"BSTAR":0.00030305233,"MEAN_MOTION_DOT":7.96e-5,"MEAN_MOTION_DDOT":0},{"OBJECT_NAME":"STARLINK-30259","OBJECT_ID":"2023-115A","EPOCH":"2026-03-09T04:22:22.127520","MEAN_MOTION":15.26733515,"ECCENTRICITY":0.00010295,"INCLINATION":42.9984,"RA_OF_ASC_NODE":4.4614,"ARG_OF_PERICENTER":277.8055,"MEAN_ANOMALY":82.268,"EPHEMERIS_TYPE":0,"CLASSIFICATION_TYPE":"U","NORAD_CAT_ID":57521,"ELEMENT_SET_NO":999,"REV_AT_EPOCH":14349,"BSTAR":-0.00014311949,"MEAN_MOTION_DOT":-4.096e-5,"MEAN_MOTION_DDOT":0}]
